[{"OBJECT_NAME":"KUIPER-00172","OBJECT_ID":"2025-217Z","EPOCH":"2026-03-09T22:00:01.999584","MEAN_MOTION":14.79971326,"ECCENTRICITY":8.187e-5,"INCLINATION":51.8996,"RA_OF_ASC_NODE":17.7852,"ARG_OF_PERICENTER":353.3149,"MEAN_ANOMALY":271.5912,"EPHEMERIS_TYPE":0,"CLASSIFICATION_TYPE":"U","NORAD_CAT_ID":65785,"ELEMENT_SET_NO":999,"REV_AT_EPOCH":375,"BSTAR":-0.0031208679,"MEAN_MOTION_DOT":-0.0002395,"MEAN_MOTION_DDOT":0},{"OBJECT_NAME":"FENGYUN 1C DEB","OBJECT_ID":"1999-025CHK","EPOCH":"2026-03-09T12:20:55.745376","MEAN_MOTION":14.45252614,"ECCENTRICITY":0.02103787,"INCLINATION":98.1559,"RA_OF_ASC_NODE":314.9369,"ARG_OF_PERICENTER":108.9554,"MEAN_ANOMALY":253.4566,"EPHEMERIS_TYPE":0,"CLASSIFICATION_TYPE":"U","NORAD_CAT_ID":31821,"ELEMENT_SET_NO":999,"REV_AT_EPOCH":94913,"BSTAR":0.0040906882,"MEAN_MOTION_DOT":0.00018855,"MEAN_MOTION_DDOT":0}]
